{"fetched_at":"2026-07-18T06:28:10.739Z","source":"https://celestrak.org/NORAD/elements/gp.php?NAME=HULIANWANG&FORMAT=JSON","constellation":"guowang","records":[{"OBJECT_NAME":"HULIANWANG DIGUI-92","OBJECT_ID":"2025-231F","EPOCH":"2026-07-17T21:07:18.237216","CLASSIFICATION_TYPE":"U","MEAN_MOTION":13.29329142,"ECCENTRICITY":0.00005163,"INCLINATION":50.0061,"RA_OF_ASC_NODE":65.5738,"ARG_OF_PERICENTER":351.6624,"MEAN_ANOMALY":8.4239,"EPHEMERIS_TYPE":0,"NORAD_CAT_ID":66000,"ELEMENT_SET_NO":999,"REV_AT_EPOCH":3697,"BSTAR":0.000055008125,"MEAN_MOTION_DOT":-9.9e-7,"MEAN_MOTION_DDOT":0},{"OBJECT_NAME":"HULIANWANG DIGUI-93","OBJECT_ID":"2025-231G","EPOCH":"2026-07-17T22:31:27.523200","CLASSIFICATION_TYPE":"U","MEAN_MOTION":13.29328099,"ECCENTRICITY":0.00005037,"INCLINATION":50.0029,"RA_OF_ASC_NODE":65.151,"ARG_OF_PERICENTER":345.6651,"MEAN_ANOMALY":14.4207,"EPHEMERIS_TYPE":0,"NORAD_CAT_ID":66001,"ELEMENT_SET_NO":999,"REV_AT_EPOCH":3698,"BSTAR":0.000044638208,"MEAN_MOTION_DOT":-0.00000103,"MEAN_MOTION_DDOT":0},{"OBJECT_NAME":"HULIANWANG DIGUI-94","OBJECT_ID":"2025-231H","EPOCH":"2026-07-17T22:43:43.023936","CLASSIFICATION_TYPE":"U","MEAN_MOTION":13.29326096,"ECCENTRICITY":0.00005293,"INCLINATION":50.0066,"RA_OF_ASC_NODE":65.2789,"ARG_OF_PERICENTER":348.4714,"MEAN_ANOMALY":11.6146,"EPHEMERIS_TYPE":0,"NORAD_CAT_ID":66002,"ELEMENT_SET_NO":999,"REV_AT_EPOCH":3698,"BSTAR":0.000047364125,"MEAN_MOTION_DOT":-0.00000102,"MEAN_MOTION_DDOT":0},{"OBJECT_NAME":"HULIANWANG DIGUI-95","OBJECT_ID":"2025-231J","EPOCH":"2026-07-17T22:19:29.063136","CLASSIFICATION_TYPE":"U","MEAN_MOTION":13.29332513,"ECCENTRICITY":0.00004984,"INCLINATION":50.0041,"RA_OF_ASC_NODE":65.1336,"ARG_OF_PERICENTER":352.0836,"MEAN_ANOMALY":8.0028,"EPHEMERIS_TYPE":0,"NORAD_CAT_ID":66003,"ELEMENT_SET_NO":999,"REV_AT_EPOCH":3698,"BSTAR":0.000050945393,"MEAN_MOTION_DOT":-0.000001,"MEAN_MOTION_DDOT":0},{"OBJECT_NAME":"HULIANWANG DIGUI-96","OBJECT_ID":"2025-258A","EPOCH":"2026-07-17T22:53:37.944096","CLASSIFICATION_TYPE":"U","MEAN_MOTION":13.29327298,"ECCENTRICITY":0.00008642,"INCLINATION":50.0021,"RA_OF_ASC_NODE":185.2922,"ARG_OF_PERICENTER":259.285,"MEAN_ANOMALY":100.7925,"EPHEMERIS_TYPE":0,"NORAD_CAT_ID":66412,"ELEMENT_SET_NO":999,"REV_AT_EPOCH":3382,"BSTAR":0.000008320255,"MEAN_MOTION_DOT":-0.0000012,"MEAN_MOTION_DDOT":0},{"OBJECT_NAME":"HULIANWANG DIGUI-97","OBJECT_ID":"2025-258B","EPOCH":"2026-07-17T21:53:25.621440","CLASSIFICATION_TYPE":"U","MEAN_MOTION":13.29326844,"ECCENTRICITY":0.00009896,"INCLINATION":49.9986,"RA_OF_ASC_NODE":185.6661,"ARG_OF_PERICENTER":259.6157,"MEAN_ANOMALY":100.4604,"EPHEMERIS_TYPE":0,"NORAD_CAT_ID":66413,"ELEMENT_SET_NO":999,"REV_AT_EPOCH":3381,"BSTAR":0.000005988843,"MEAN_MOTION_DOT":-0.00000121,"MEAN_MOTION_DDOT":0},{"OBJECT_NAME":"HULIANWANG DIGUI-98","OBJECT_ID":"2025-258C","EPOCH":"2026-07-17T23:29:52.593216","CLASSIFICATION_TYPE":"U","MEAN_MOTION":13.29323315,"ECCENTRICITY":0.00010711,"INCLINATION":50.0027,"RA_OF_ASC_NODE":185.433,"ARG_OF_PERICENTER":254.925,"MEAN_ANOMALY":105.1504,"EPHEMERIS_TYPE":0,"NORAD_CAT_ID":66414,"ELEMENT_SET_NO":999,"REV_AT_EPOCH":3382,"BSTAR":-0.000002698831,"MEAN_MOTION_DOT":-0.00000125,"MEAN_MOTION_DDOT":0},{"OBJECT_NAME":"HULIANWANG DIGUI-99","OBJECT_ID":"2025-258D","EPOCH":"2026-07-17T06:27:19.368288","CLASSIFICATION_TYPE":"U","MEAN_MOTION":13.29326531,"ECCENTRICITY":0.0000969,"INCLINATION":50.0023,"RA_OF_ASC_NODE":187.678,"ARG_OF_PERICENTER":260.1068,"MEAN_ANOMALY":99.9695,"EPHEMERIS_TYPE":0,"NORAD_CAT_ID":66415,"ELEMENT_SET_NO":999,"REV_AT_EPOCH":3372,"BSTAR":0.0000033666,"MEAN_MOTION_DOT":-0.00000122,"MEAN_MOTION_DDOT":0},{"OBJECT_NAME":"HULIANWANG DIGUI-100","OBJECT_ID":"2025-258E","EPOCH":"2026-07-17T23:17:50.035200","CLASSIFICATION_TYPE":"U","MEAN_MOTION":13.29323384,"ECCENTRICITY":0.00009795,"INCLINATION":50.0024,"RA_OF_ASC_NODE":185.3936,"ARG_OF_PERICENTER":266.9508,"MEAN_ANOMALY":93.1252,"EPHEMERIS_TYPE":0,"NORAD_CAT_ID":66416,"ELEMENT_SET_NO":999,"REV_AT_EPOCH":3383,"BSTAR":0.000010712763,"MEAN_MOTION_DOT":-0.00000119,"MEAN_MOTION_DDOT":0},{"OBJECT_NAME":"HULIANWANG DIGUI-101","OBJECT_ID":"2025-258F","EPOCH":"2026-07-17T23:05:31.855200","CLASSIFICATION_TYPE":"U","MEAN_MOTION":13.29327245,"ECCENTRICITY":0.00008224,"INCLINATION":49.9975,"RA_OF_ASC_NODE":185.2407,"ARG_OF_PERICENTER":262.386,"MEAN_ANOMALY":97.6919,"EPHEMERIS_TYPE":0,"NORAD_CAT_ID":66417,"ELEMENT_SET_NO":999,"REV_AT_EPOCH":3383,"BSTAR":0.000010336031,"MEAN_MOTION_DOT":-0.00000119,"MEAN_MOTION_DDOT":0},{"OBJECT_NAME":"HULIANWANG DIGUI-102","OBJECT_ID":"2025-258G","EPOCH":"2026-07-17T22:29:39.153408","CLASSIFICATION_TYPE":"U","MEAN_MOTION":13.29323252,"ECCENTRICITY":0.00008663,"INCLINATION":49.999,"RA_OF_ASC_NODE":185.1358,"ARG_OF_PERICENTER":259.7973,"MEAN_ANOMALY":100.2801,"EPHEMERIS_TYPE":0,"NORAD_CAT_ID":66418,"ELEMENT_SET_NO":999,"REV_AT_EPOCH":3382,"BSTAR":0.000018728851,"MEAN_MOTION_DOT":-0.00000115,"MEAN_MOTION_DDOT":0},{"OBJECT_NAME":"HULIANWANG DIGUI-103","OBJECT_ID":"2025-258H","EPOCH":"2026-07-17T22:17:25.889568","CLASSIFICATION_TYPE":"U","MEAN_MOTION":13.29326381,"ECCENTRICITY":0.00009504,"INCLINATION":49.9983,"RA_OF_ASC_NODE":185.0769,"ARG_OF_PERICENTER":270.8356,"MEAN_ANOMALY":89.2407,"EPHEMERIS_TYPE":0,"NORAD_CAT_ID":66419,"ELEMENT_SET_NO":999,"REV_AT_EPOCH":3382,"BSTAR":0.000022037819,"MEAN_MOTION_DOT":-0.00000114,"MEAN_MOTION_DDOT":0},{"OBJECT_NAME":"HULIANWANG DIGUI-104","OBJECT_ID":"2025-258J","EPOCH":"2026-07-17T22:05:27.793248","CLASSIFICATION_TYPE":"U","MEAN_MOTION":13.2932645,"ECCENTRICITY":0.0000915,"INCLINATION":50,"RA_OF_ASC_NODE":185.0734,"ARG_OF_PERICENTER":258.667,"MEAN_ANOMALY":101.4099,"EPHEMERIS_TYPE":0,"NORAD_CAT_ID":66420,"ELEMENT_SET_NO":999,"REV_AT_EPOCH":3381,"BSTAR":0.00001543932,"MEAN_MOTION_DOT":-0.00000117,"MEAN_MOTION_DDOT":0},{"OBJECT_NAME":"HULIANWANG DIGUI-105","OBJECT_ID":"2025-285A","EPOCH":"2026-07-17T22:11:20.854752","CLASSIFICATION_TYPE":"U","MEAN_MOTION":13.29322679,"ECCENTRICITY":0.00009521,"INCLINATION":50.006,"RA_OF_ASC_NODE":35.983,"ARG_OF_PERICENTER":43.7508,"MEAN_ANOMALY":316.3439,"EPHEMERIS_TYPE":0,"NORAD_CAT_ID":66915,"ELEMENT_SET_NO":999,"REV_AT_EPOCH":3014,"BSTAR":0.000024676437,"MEAN_MOTION_DOT":-0.00000113,"MEAN_MOTION_DDOT":0},{"OBJECT_NAME":"HULIANWANG DIGUI-106","OBJECT_ID":"2025-285B","EPOCH":"2026-07-17T21:59:15.172512","CLASSIFICATION_TYPE":"U","MEAN_MOTION":13.29323115,"ECCENTRICITY":0.00009841,"INCLINATION":50.0072,"RA_OF_ASC_NODE":35.96,"ARG_OF_PERICENTER":41.8473,"MEAN_ANOMALY":318.2474,"EPHEMERIS_TYPE":0,"NORAD_CAT_ID":66916,"ELEMENT_SET_NO":999,"REV_AT_EPOCH":3014,"BSTAR":0.000036428006,"MEAN_MOTION_DOT":-0.00000107,"MEAN_MOTION_DDOT":0},{"OBJECT_NAME":"HULIANWANG DIGUI-107","OBJECT_ID":"2025-285C","EPOCH":"2026-07-17T21:47:01.061088","CLASSIFICATION_TYPE":"U","MEAN_MOTION":13.29326049,"ECCENTRICITY":0.00009697,"INCLINATION":50.0036,"RA_OF_ASC_NODE":35.8533,"ARG_OF_PERICENTER":46.751,"MEAN_ANOMALY":313.3443,"EPHEMERIS_TYPE":0,"NORAD_CAT_ID":66917,"ELEMENT_SET_NO":999,"REV_AT_EPOCH":3014,"BSTAR":0.000039911794,"MEAN_MOTION_DOT":-0.00000106,"MEAN_MOTION_DDOT":0}]}
