HULIANWANG DIGUI-92     
1 66000U 25231F   26198.88007219 -.00000099  00000+0  55008-4 0  9996
2 66000  50.0061  65.5738 0000516 351.6624   8.4239 13.29329142 36976
HULIANWANG DIGUI-93     
1 66001U 25231G   26198.93851300 -.00000103  00000+0  44638-4 0  9994
2 66001  50.0029  65.1510 0000503 345.6651  14.4207 13.29328099 36987
HULIANWANG DIGUI-94     
1 66002U 25231H   26198.94702574 -.00000102  00000+0  47364-4 0  9992
2 66002  50.0066  65.2789 0000529 348.4714  11.6146 13.29326096 36983
HULIANWANG DIGUI-95     
1 66003U 25231J   26198.93019749 -.00000100  00000+0  50945-4 0  9994
2 66003  50.0041  65.1336 0000498 352.0836   8.0028 13.29332513 36985
HULIANWANG DIGUI-96     
1 66412U 25258A   26198.95391139 -.00000120  00000+0  83203-5 0  9991
2 66412  50.0021 185.2922 0000864 259.2850 100.7925 13.29327298 33823
HULIANWANG DIGUI-97     
1 66413U 25258B   26198.91210210 -.00000121  00000+0  59888-5 0  9991
2 66413  49.9986 185.6661 0000989 259.6157 100.4604 13.29326844 33813
HULIANWANG DIGUI-98     
1 66414U 25258C   26198.97908094 -.00000125  00000+0 -26988-5 0  9992
2 66414  50.0027 185.4330 0001071 254.9250 105.1504 13.29323315 33821
HULIANWANG DIGUI-99     
1 66415U 25258D   26198.26897417 -.00000122  00000+0  33666-5 0  9998
2 66415  50.0023 187.6780 0000969 260.1068  99.9695 13.29326531 33725
HULIANWANG DIGUI-100    
1 66416U 25258E   26198.97071800 -.00000119  00000+0  10713-4 0  9990
2 66416  50.0024 185.3936 0000979 266.9508  93.1252 13.29323384 33839
HULIANWANG DIGUI-101    
1 66417U 25258F   26198.96217425 -.00000119  00000+0  10336-4 0  9996
2 66417  49.9975 185.2407 0000822 262.3860  97.6919 13.29327245 33831
HULIANWANG DIGUI-102    
1 66418U 25258G   26198.93725872 -.00000115  00000+0  18729-4 0  9994
2 66418  49.9990 185.1358 0000866 259.7973 100.2801 13.29323252 33820
HULIANWANG DIGUI-103    
1 66419U 25258H   26198.92877187 -.00000114  00000+0  22038-4 0  9998
2 66419  49.9983 185.0769 0000950 270.8356  89.2407 13.29326381 33825
HULIANWANG DIGUI-104    
1 66420U 25258J   26198.92046057 -.00000117  00000+0  15439-4 0  9994
2 66420  50.0000 185.0734 0000915 258.6670 101.4099 13.29326450 33816
HULIANWANG DIGUI-105    
1 66915U 25285A   26198.92454693 -.00000113  00000+0  24676-4 0  9991
2 66915  50.0060  35.9830 0000952  43.7508 316.3439 13.29322679 30142
HULIANWANG DIGUI-106    
1 66916U 25285B   26198.91614783 -.00000107  00000+0  36428-4 0  9990
2 66916  50.0072  35.9600 0000984  41.8473 318.2474 13.29323115 30142
HULIANWANG DIGUI-107    
1 66917U 25285C   26198.90765117 -.00000106  00000+0  39912-4 0  9998
2 66917  50.0036  35.8533 0000969  46.7510 313.3443 13.29326049 30147
